{
    "links": {
        "self": "http://www.neowsapp.com/rest/v1/neo/54000002?api_key=iIulBulltgU6a56xZRHN4H3l9WmuAYTsLGpBGhQ2"
    },
    "id": "54000002",
    "neo_reference_id": "54000002",
    "name": "(2020 BG16)",
    "designation": "2020 BG16",
    "nasa_jpl_url": "http://ssd.jpl.nasa.gov/sbdb.cgi?sstr=54000002",
    "absolute_magnitude_h": 24.987,
    "estimated_diameter": {
        "kilometers": {
            "estimated_diameter_min": 0.0267396043,
            "estimated_diameter_max": 0.059791573
        },
        "meters": {
            "estimated_diameter_min": 26.7396043272,
            "estimated_diameter_max": 59.7915729671
        },
        "miles": {
            "estimated_diameter_min": 0.0166152147,
            "estimated_diameter_max": 0.0371527495
        },
        "feet": {
            "estimated_diameter_min": 87.7283634609,
            "estimated_diameter_max": 196.1665842534
        }
    },
    "is_potentially_hazardous_asteroid": false,
    "close_approach_data": [
        {
            "close_approach_date": "2020-01-10",
            "close_approach_date_full": "2020-Jan-10 20:34",
            "epoch_date_close_approach": 1578688440000,
            "relative_velocity": {
                "kilometers_per_second": "11.3044277969",
                "kilometers_per_hour": "40695.9400687864",
                "miles_per_hour": "25286.8745388523"
            },
            "miss_distance": {
                "astronomical": "0.0896997037",
                "lunar": "34.8931847393",
                "kilometers": "13418884.613151119",
                "miles": "8338108.2553946822"
            },
            "orbiting_body": "Earth"
        }
    ],
    "orbital_data": {
        "orbit_id": "1",
        "orbit_determination_date": "2020-02-23 19:12:26",
        "first_observation_date": "2020-01-26",
        "last_observation_date": "2020-01-27",
        "data_arc_in_days": 1,
        "observations_used": 9,
        "orbit_uncertainty": "9",
        "minimum_orbit_intersection": ".0653877",
        "jupiter_tisserand_invariant": "3.783",
        "epoch_osculation": "2458875.5",
        "eccentricity": ".5232097731846247",
        "semi_major_axis": "1.881997790064145",
        "inclination": "6.402828421196175",
        "ascending_node_longitude": "338.5107217088591",
        "orbital_period": "943.0334344483797",
        "perihelion_distance": ".8973181531907187",
        "perihelion_argument": "83.19815358046155",
        "aphelion_distance": "2.866677426937571",
        "perihelion_time": "2458823.832699243596",
        "mean_anomaly": "19.72382695337361",
        "mean_motion": ".3817468043543751",
        "equinox": "J2000",
        "orbit_class": {
            "orbit_class_type": "APO",
            "orbit_class_description": "Near-Earth asteroid orbits which cross the Earth’s orbit similar to that of 1862 Apollo",
            "orbit_class_range": "a (semi-major axis) > 1.0 AU; q (perihelion) < 1.017 AU"
        }
    },
    "is_sentry_object": false
}